[{"OBJECT_NAME":"GHGSAT-C5","OBJECT_ID":"2022-057N","EPOCH":"2026-03-09T21:50:12.501024","MEAN_MOTION":15.32921902,"ECCENTRICITY":0.00082696,"INCLINATION":97.6522,"RA_OF_ASC_NODE":212.4963,"ARG_OF_PERICENTER":109.8004,"MEAN_ANOMALY":250.413,"EPHEMERIS_TYPE":0,"CLASSIFICATION_TYPE":"U","NORAD_CAT_ID":52744,"ELEMENT_SET_NO":999,"REV_AT_EPOCH":21032,"BSTAR":0.00029214604,"MEAN_MOTION_DOT":9.218e-5,"MEAN_MOTION_DDOT":0},{"OBJECT_NAME":"STARLINK-34504","OBJECT_ID":"2025-137G","EPOCH":"2026-03-09T23:27:44.697024","MEAN_MOTION":15.30210515,"ECCENTRICITY":8.455e-5,"INCLINATION":53.1584,"RA_OF_ASC_NODE":334.2838,"ARG_OF_PERICENTER":119.8087,"MEAN_ANOMALY":240.2998,"EPHEMERIS_TYPE":0,"CLASSIFICATION_TYPE":"U","NORAD_CAT_ID":64600,"ELEMENT_SET_NO":999,"REV_AT_EPOCH":4077,"BSTAR":0.00082856107,"MEAN_MOTION_DOT":0.00024269,"MEAN_MOTION_DDOT":0}]
